[{"OBJECT_NAME":"OPS 3165 (DSP 5)","OBJECT_ID":"1975-118A","EPOCH":"2026-03-06T19:07:19.779744","MEAN_MOTION":1.00463168,"ECCENTRICITY":0.0034821,"INCLINATION":2.5552,"RA_OF_ASC_NODE":260.5681,"ARG_OF_PERICENTER":25.3641,"MEAN_ANOMALY":171.7942,"EPHEMERIS_TYPE":0,"CLASSIFICATION_TYPE":"U","NORAD_CAT_ID":8482,"ELEMENT_SET_NO":999,"REV_AT_EPOCH":2542,"BSTAR":0,"MEAN_MOTION_DOT":7.0e-7,"MEAN_MOTION_DDOT":0},{"OBJECT_NAME":"RADUGA 1","OBJECT_ID":"1975-123A","EPOCH":"2026-03-06T19:28:02.792352","MEAN_MOTION":1.00248179,"ECCENTRICITY":0.0004343,"INCLINATION":3.0667,"RA_OF_ASC_NODE":268.1919,"ARG_OF_PERICENTER":301.1853,"MEAN_ANOMALY":326.1657,"EPHEMERIS_TYPE":0,"CLASSIFICATION_TYPE":"U","NORAD_CAT_ID":8513,"ELEMENT_SET_NO":999,"REV_AT_EPOCH":19378,"BSTAR":0,"MEAN_MOTION_DOT":-1.25e-6,"MEAN_MOTION_DDOT":0},{"OBJECT_NAME":"TITAN 3C TRANSTAGE R/B","OBJECT_ID":"1975-118C","EPOCH":"2026-03-06T02:58:02.246304","MEAN_MOTION":1.00552432,"ECCENTRICITY":0.00109778,"INCLINATION":2.5343,"RA_OF_ASC_NODE":260.8876,"ARG_OF_PERICENTER":212.7136,"MEAN_ANOMALY":146.6524,"EPHEMERIS_TYPE":0,"CLASSIFICATION_TYPE":"U","NORAD_CAT_ID":8516,"ELEMENT_SET_NO":999,"REV_AT_EPOCH":2474,"BSTAR":0,"MEAN_MOTION_DOT":5.4e-7,"MEAN_MOTION_DDOT":0},{"OBJECT_NAME":"CTS","OBJECT_ID":"1976-004A","EPOCH":"2026-03-06T13:29:44.650176","MEAN_MOTION":1.00201948,"ECCENTRICITY":0.00114748,"INCLINATION":4.1946,"RA_OF_ASC_NODE":273.4984,"ARG_OF_PERICENTER":291.2809,"MEAN_ANOMALY":64.7712,"EPHEMERIS_TYPE":0,"CLASSIFICATION_TYPE":"U","NORAD_CAT_ID":8585,"ELEMENT_SET_NO":999,"REV_AT_EPOCH":12126,"BSTAR":0,"MEAN_MOTION_DOT":-1.35e-6,"MEAN_MOTION_DDOT":0},{"OBJECT_NAME":"INTELSAT 4A-F2","OBJECT_ID":"1976-010A","EPOCH":"2026-03-06T19:14:19.109184","MEAN_MOTION":0.99688142,"ECCENTRICITY":0.0006801,"INCLINATION":8.1178,"RA_OF_ASC_NODE":304.5922,"ARG_OF_PERICENTER":315.6805,"MEAN_ANOMALY":223.6375,"EPHEMERIS_TYPE":0,"CLASSIFICATION_TYPE":"U","NORAD_CAT_ID":8620,"ELEMENT_SET_NO":999,"REV_AT_EPOCH":61959,"BSTAR":0,"MEAN_MOTION_DOT":8.1e-7,"MEAN_MOTION_DDOT":0},{"OBJECT_NAME":"LES-8","OBJECT_ID":"1976-023A","EPOCH":"2026-03-06T10:02:50.155584","MEAN_MOTION":1.00269758,"ECCENTRICITY":0.00320546,"INCLINATION":22.2084,"RA_OF_ASC_NODE":38.3386,"ARG_OF_PERICENTER":156.8658,"MEAN_ANOMALY":16.241,"EPHEMERIS_TYPE":0,"CLASSIFICATION_TYPE":"U","NORAD_CAT_ID":8746,"ELEMENT_SET_NO":999,"REV_AT_EPOCH":12865,"BSTAR":0,"MEAN_MOTION_DOT":-1.2e-6,"MEAN_MOTION_DDOT":0},{"OBJECT_NAME":"LES-9","OBJECT_ID":"1976-023B","EPOCH":"2026-03-06T10:02:42.668160","MEAN_MOTION":1.00275869,"ECCENTRICITY":0.00238979,"INCLINATION":22.1699,"RA_OF_ASC_NODE":38.3505,"ARG_OF_PERICENTER":180.9594,"MEAN_ANOMALY":352.1321,"EPHEMERIS_TYPE":0,"CLASSIFICATION_TYPE":"U","NORAD_CAT_ID":8747,"ELEMENT_SET_NO":999,"REV_AT_EPOCH":12864,"BSTAR":0,"MEAN_MOTION_DOT":-1.21e-6,"MEAN_MOTION_DDOT":0},{"OBJECT_NAME":"COMSTAR 1","OBJECT_ID":"1976-042A","EPOCH":"2026-03-06T10:23:48.147360","MEAN_MOTION":0.99829217,"ECCENTRICITY":0.00058166,"INCLINATION":8.1871,"RA_OF_ASC_NODE":305.345,"ARG_OF_PERICENTER":356.5833,"MEAN_ANOMALY":348.9847,"EPHEMERIS_TYPE":0,"CLASSIFICATION_TYPE":"U","NORAD_CAT_ID":8838,"ELEMENT_SET_NO":999,"REV_AT_EPOCH":11954,"BSTAR":0,"MEAN_MOTION_DOT":-2.63e-6,"MEAN_MOTION_DDOT":0},{"OBJECT_NAME":"TITAN 3C TRANSTAGE R/B","OBJECT_ID":"1976-059C","EPOCH":"2026-03-06T05:22:58.183392","MEAN_MOTION":1.00542181,"ECCENTRICITY":0.00079512,"INCLINATION":2.9943,"RA_OF_ASC_NODE":263.6246,"ARG_OF_PERICENTER":274.5599,"MEAN_ANOMALY":84.8803,"EPHEMERIS_TYPE":0,"CLASSIFICATION_TYPE":"U","NORAD_CAT_ID":8918,"ELEMENT_SET_NO":999,"REV_AT_EPOCH":2441,"BSTAR":0,"MEAN_MOTION_DOT":1.33e-6,"MEAN_MOTION_DDOT":0},{"OBJECT_NAME":"PALAPA 1","OBJECT_ID":"1976-066A","EPOCH":"2026-03-06T14:31:16.250016","MEAN_MOTION":1.00090437,"ECCENTRICITY":0.00025948,"INCLINATION":8.1072,"RA_OF_ASC_NODE":305.7168,"ARG_OF_PERICENTER":268.1841,"MEAN_ANOMALY":286.8445,"EPHEMERIS_TYPE":0,"CLASSIFICATION_TYPE":"U","NORAD_CAT_ID":9009,"ELEMENT_SET_NO":999,"REV_AT_EPOCH":12691,"BSTAR":0,"MEAN_MOTION_DOT":-3.67e-6,"MEAN_MOTION_DDOT":0},{"OBJECT_NAME":"COMSTAR 2","OBJECT_ID":"1976-073A","EPOCH":"2026-03-06T13:59:53.458368","MEAN_MOTION":0.99965154,"ECCENTRICITY":0.00017547,"INCLINATION":8.1356,"RA_OF_ASC_NODE":305.8259,"ARG_OF_PERICENTER":8.2421,"MEAN_ANOMALY":140.5913,"EPHEMERIS_TYPE":0,"CLASSIFICATION_TYPE":"U","NORAD_CAT_ID":9047,"ELEMENT_SET_NO":999,"REV_AT_EPOCH":4618,"BSTAR":0,"MEAN_MOTION_DOT":-8.4e-7,"MEAN_MOTION_DDOT":0},{"OBJECT_NAME":"RADUGA 2","OBJECT_ID":"1976-092A","EPOCH":"2026-03-06T19:23:40.711776","MEAN_MOTION":1.00267189,"ECCENTRICITY":0.0029827,"INCLINATION":3.7413,"RA_OF_ASC_NODE":271.1544,"ARG_OF_PERICENTER":37.1436,"MEAN_ANOMALY":210.7563,"EPHEMERIS_TYPE":0,"CLASSIFICATION_TYPE":"U","NORAD_CAT_ID":9416,"ELEMENT_SET_NO":999,"REV_AT_EPOCH":12831,"BSTAR":0,"MEAN_MOTION_DOT":1.5e-7,"MEAN_MOTION_DDOT":0},{"OBJECT_NAME":"KIKU-2 (ETS-II)","OBJECT_ID":"1977-014A","EPOCH":"2026-03-06T18:16:39.639360","MEAN_MOTION":1.00019056,"ECCENTRICITY":0.0001497,"INCLINATION":5.5309,"RA_OF_ASC_NODE":284.2855,"ARG_OF_PERICENTER":48.2125,"MEAN_ANOMALY":294.5942,"EPHEMERIS_TYPE":0,"CLASSIFICATION_TYPE":"U","NORAD_CAT_ID":9852,"ELEMENT_SET_NO":999,"REV_AT_EPOCH":12619,"BSTAR":0,"MEAN_MOTION_DOT":5.6e-7,"MEAN_MOTION_DDOT":0},{"OBJECT_NAME":"TITAN 3C TRANSTAGE R/B","OBJECT_ID":"1977-007C","EPOCH":"2026-03-06T16:12:36.200736","MEAN_MOTION":1.00304337,"ECCENTRICITY":0.0017389,"INCLINATION":3.6577,"RA_OF_ASC_NODE":269.6494,"ARG_OF_PERICENTER":44.4001,"MEAN_ANOMALY":315.3829,"EPHEMERIS_TYPE":0,"CLASSIFICATION_TYPE":"U","NORAD_CAT_ID":9855,"ELEMENT_SET_NO":999,"REV_AT_EPOCH":2433,"BSTAR":0,"MEAN_MOTION_DOT":9.2e-7,"MEAN_MOTION_DDOT":0},{"OBJECT_NAME":"PALAPA 2","OBJECT_ID":"1977-018A","EPOCH":"2026-03-06T14:24:31.896288","MEAN_MOTION":1.00028353,"ECCENTRICITY":0.00030418,"INCLINATION":8.8632,"RA_OF_ASC_NODE":310.9656,"ARG_OF_PERICENTER":87.6428,"MEAN_ANOMALY":76.2949,"EPHEMERIS_TYPE":0,"CLASSIFICATION_TYPE":"U","NORAD_CAT_ID":9862,"ELEMENT_SET_NO":999,"REV_AT_EPOCH":14208,"BSTAR":0,"MEAN_MOTION_DOT":-2.29e-6,"MEAN_MOTION_DDOT":0},{"OBJECT_NAME":"RADUGA 3","OBJECT_ID":"1977-071A","EPOCH":"2026-03-06T19:17:11.333760","MEAN_MOTION":1.00313935,"ECCENTRICITY":0.0008654,"INCLINATION":4.3802,"RA_OF_ASC_NODE":274.895,"ARG_OF_PERICENTER":305.5934,"MEAN_ANOMALY":274.2756,"EPHEMERIS_TYPE":0,"CLASSIFICATION_TYPE":"U","NORAD_CAT_ID":10159,"ELEMENT_SET_NO":999,"REV_AT_EPOCH":17601,"BSTAR":0,"MEAN_MOTION_DOT":1.4e-6,"MEAN_MOTION_DDOT":0},{"OBJECT_NAME":"SIRIO","OBJECT_ID":"1977-080A","EPOCH":"2026-03-06T14:13:51.764736","MEAN_MOTION":1.00271126,"ECCENTRICITY":0.00054526,"INCLINATION":7.4526,"RA_OF_ASC_NODE":299.9249,"ARG_OF_PERICENTER":149.1069,"MEAN_ANOMALY":4.4708,"EPHEMERIS_TYPE":0,"CLASSIFICATION_TYPE":"U","NORAD_CAT_ID":10294,"ELEMENT_SET_NO":999,"REV_AT_EPOCH":11689,"BSTAR":0,"MEAN_MOTION_DOT":-1.05e-6,"MEAN_MOTION_DDOT":0}]
