OPS 3165 (DSP 5)        
1 08482U 75118A   26065.79675671  .00000070  00000+0  00000+0 0  9996
2 08482   2.5552 260.5681 0034821  25.3641 171.7942  1.00463168 25423
RADUGA 1                
1 08513U 75123A   26065.81114343 -.00000125  00000+0  00000+0 0  9996
2 08513   3.0667 268.1919 0004343 301.1853 326.1657  1.00248179193782
TITAN 3C TRANSTAGE R/B  
1 08516U 75118C   26065.12363711  .00000054  00000+0  00000+0 0  9992
2 08516   2.5343 260.8876 0010977 212.7136 146.6524  1.00552432 24749
CTS                     
1 08585U 76004A   26065.56232234 -.00000135  00000+0  00000+0 0  9997
2 08585   4.1946 273.4984 0011474 291.2809  64.7712  1.00201948121261
INTELSAT 4A-F2          
1 08620U 76010A   26065.80161006  .00000081  00000+0  00000+0 0  9998
2 08620   8.1178 304.5922 0006801 315.6805 223.6375  0.99688142619596
LES-8                   
1 08746U 76023A   26065.41863606 -.00000120  00000+0  00000+0 0  9998
2 08746  22.2084  38.3386 0032054 156.8658  16.2410  1.00269758128653
LES-9                   
1 08747U 76023B   26065.41854940 -.00000121  00000+0  00000+0 0  9991
2 08747  22.1699  38.3505 0023897 180.9594 352.1321  1.00275869128642
COMSTAR 1               
1 08838U 76042A   26065.43319615 -.00000263  00000+0  00000+0 0  9997
2 08838   8.1871 305.3450 0005816 356.5833 348.9847  0.99829217119547
TITAN 3C TRANSTAGE R/B  
1 08918U 76059C   26065.22428453  .00000133  00000+0  00000+0 0  9997
2 08918   2.9943 263.6246 0007951 274.5599  84.8803  1.00542181 24411
PALAPA 1                
1 09009U 76066A   26065.60504919 -.00000367  00000+0  00000+0 0  9991
2 09009   8.1072 305.7168 0002594 268.1841 286.8445  1.00090437126918
COMSTAR 2               
1 09047U 76073A   26065.58325762 -.00000084  00000+0  00000+0 0  9991
2 09047   8.1356 305.8259 0001754   8.2421 140.5913  0.99965154 46181
RADUGA 2                
1 09416U 76092A   26065.80811009  .00000015  00000+0  00000+0 0  9994
2 09416   3.7413 271.1544 0029827  37.1436 210.7563  1.00267189128319
KIKU-2 (ETS-II)         
1 09852U 77014A   26065.76156990  .00000056  00000+0  00000+0 0  9994
2 09852   5.5309 284.2855 0001497  48.2125 294.5942  1.00019056126191
TITAN 3C TRANSTAGE R/B  
1 09855U 77007C   26065.67541899  .00000092  00000+0  00000+0 0  9995
2 09855   3.6577 269.6494 0017389  44.4001 315.3829  1.00304337 24332
PALAPA 2                
1 09862U 77018A   26065.60036917 -.00000229  00000+0  00000+0 0  9991
2 09862   8.8632 310.9656 0003041  87.6428  76.2949  1.00028353142081
RADUGA 3                
1 10159U 77071A   26065.80360340  .00000140  00000+0  00000+0 0  9994
2 10159   4.3802 274.8950 0008654 305.5934 274.2756  1.00313935176015
SIRIO                   
1 10294U 77080A   26065.59296024 -.00000105  00000+0  00000+0 0  9999
2 10294   7.4526 299.9249 0005452 149.1069   4.4708  1.00271126116890
